ONEWEB-0161             
1 48053U 21025M   26061.13942615  .00000256  00000+0  66587-3 0  9993
2 48053  87.9037 341.5110 0001950  77.1142 283.0205 13.13469462239450
ONEWEB-0158             
1 48054U 21025N   26061.02261622 -.00000142  00000+0 -42351-3 0  9993
2 48054  87.9052 341.5241 0001513  86.5630 273.5672 13.13469153239565
ONEWEB-0157             
1 48055U 21025P   26061.04800759 -.00000085  00000+0 -26662-3 0  9999
2 48055  87.9049 341.5238 0002203  78.9390 281.1987 13.13469832239505
ONEWEB-0162             
1 48056U 21025Q   26061.02416993 -.00000170  00000+0 -49962-3 0  9994
2 48056  87.9051 341.5329 0001807  73.7054 286.4273 13.13470789239474
ONEWEB-0155             
1 48057U 21025R   26061.03107626 -.00000276  00000+0 -79075-3 0  9991
2 48057  87.9040 341.5310 0001923  82.2982 277.8365 13.13469211239617
ONEWEB-0149             
1 48058U 21025S   26061.05308619  .00000031  00000+0  49481-4 0  9995
2 48058  87.9047 341.5232 0001804  71.7449 288.3877 13.13469582239422
ONEWEB-0148             
1 48059U 21025T   26061.16820339  .00000042  00000+0  78991-4 0  9996
2 48059  87.9044 341.5153 0002042  62.7527 297.3810 13.13470022239567
ONEWEB-0160             
1 48060U 21025U   26061.03276668 -.00000249  00000+0 -71797-3 0  9991
2 48060  87.9039 341.5387 0001044  86.5483 273.5766 13.13469716239494
ONEWEB-0163             
1 48061U 21025V   26061.16989458  .00000013  00000+0 -44672-7 0  9998
2 48061  87.9044 341.5034 0002076  79.7048 280.4315 13.13468883239634
ONEWEB-0159             
1 48062U 21025W   26061.16142491  .00000100  00000+0  23763-3 0  9997
2 48062  87.9053 341.4913 0001975  75.2517 284.8831 13.13466941239554
ONEWEB-0164             
1 48063U 21025X   26061.14280723  .00000357  00000+0  94211-3 0  9997
2 48063  87.9048 341.5016 0001712  80.8142 279.3181 13.13469417239535
ONEWEB-0167             
1 48064U 21025Y   26061.17075549  .00000400  00000+0  10596-2 0  9991
2 48064  87.9043 341.5159 0002293  94.4025 265.7366 13.13465494239529
ONEWEB-0166             
1 48065U 21025Z   26060.81270057 -.00000227  00000+0 -65694-3 0  9992
2 48065  87.9047 341.5489 0001886  73.2266 286.9070 13.13469713239557
ONEWEB-0151             
1 48066U 21025AA  26061.04292935 -.00000169  00000+0 -49667-3 0  9995
2 48066  87.9042 341.5296 0001828  82.9488 277.1849 13.13469229239523
ONEWEB-0170             
1 48067U 21025AB  26060.74668211  .00000005  00000+0 -20509-4 0  9999
2 48067  87.9041 341.5900 0001550  92.9993 267.1314 13.13469447239448
ONEWEB-0168             
1 48068U 21025AC  26061.03615530 -.00000296  00000+0 -84470-3 0  9998
2 48068  87.9051 341.5233 0001966  77.7657 282.3692 13.13469298239495
ONEWEB-0173             
1 48069U 21025AD  26061.02769516 -.00000184  00000+0 -53956-3 0  9993
2 48069  87.9047 341.5320 0002147  83.0503 277.0870 13.13469919239736
