[{"OBJECT_NAME":"ONEWEB-0161","OBJECT_ID":"2021-025M","EPOCH":"2026-03-02T03:20:46.419360","MEAN_MOTION":13.13469462,"ECCENTRICITY":0.000195,"INCLINATION":87.9037,"RA_OF_ASC_NODE":341.511,"ARG_OF_PERICENTER":77.1142,"MEAN_ANOMALY":283.0205,"EPHEMERIS_TYPE":0,"CLASSIFICATION_TYPE":"U","NORAD_CAT_ID":48053,"ELEMENT_SET_NO":999,"REV_AT_EPOCH":23945,"BSTAR":0.00066587,"MEAN_MOTION_DOT":2.56e-6,"MEAN_MOTION_DDOT":0},{"OBJECT_NAME":"ONEWEB-0158","OBJECT_ID":"2021-025N","EPOCH":"2026-03-02T00:32:34.041408","MEAN_MOTION":13.13469153,"ECCENTRICITY":0.0001513,"INCLINATION":87.9052,"RA_OF_ASC_NODE":341.5241,"ARG_OF_PERICENTER":86.563,"MEAN_ANOMALY":273.5672,"EPHEMERIS_TYPE":0,"CLASSIFICATION_TYPE":"U","NORAD_CAT_ID":48054,"ELEMENT_SET_NO":999,"REV_AT_EPOCH":23956,"BSTAR":-0.00042351,"MEAN_MOTION_DOT":-1.42e-6,"MEAN_MOTION_DDOT":0},{"OBJECT_NAME":"ONEWEB-0157","OBJECT_ID":"2021-025P","EPOCH":"2026-03-02T01:09:07.855776","MEAN_MOTION":13.13469832,"ECCENTRICITY":0.0002203,"INCLINATION":87.9049,"RA_OF_ASC_NODE":341.5238,"ARG_OF_PERICENTER":78.939,"MEAN_ANOMALY":281.1987,"EPHEMERIS_TYPE":0,"CLASSIFICATION_TYPE":"U","NORAD_CAT_ID":48055,"ELEMENT_SET_NO":999,"REV_AT_EPOCH":23950,"BSTAR":-0.00026662,"MEAN_MOTION_DOT":-8.5e-7,"MEAN_MOTION_DDOT":0},{"OBJECT_NAME":"ONEWEB-0162","OBJECT_ID":"2021-025Q","EPOCH":"2026-03-02T00:34:48.281952","MEAN_MOTION":13.13470789,"ECCENTRICITY":0.0001807,"INCLINATION":87.9051,"RA_OF_ASC_NODE":341.5329,"ARG_OF_PERICENTER":73.7054,"MEAN_ANOMALY":286.4273,"EPHEMERIS_TYPE":0,"CLASSIFICATION_TYPE":"U","NORAD_CAT_ID":48056,"ELEMENT_SET_NO":999,"REV_AT_EPOCH":23947,"BSTAR":-0.00049962,"MEAN_MOTION_DOT":-1.7e-6,"MEAN_MOTION_DDOT":0},{"OBJECT_NAME":"ONEWEB-0155","OBJECT_ID":"2021-025R","EPOCH":"2026-03-02T00:44:44.988864","MEAN_MOTION":13.13469211,"ECCENTRICITY":0.0001923,"INCLINATION":87.904,"RA_OF_ASC_NODE":341.531,"ARG_OF_PERICENTER":82.2982,"MEAN_ANOMALY":277.8365,"EPHEMERIS_TYPE":0,"CLASSIFICATION_TYPE":"U","NORAD_CAT_ID":48057,"ELEMENT_SET_NO":999,"REV_AT_EPOCH":23961,"BSTAR":-0.00079075,"MEAN_MOTION_DOT":-2.76e-6,"MEAN_MOTION_DDOT":0},{"OBJECT_NAME":"ONEWEB-0149","OBJECT_ID":"2021-025S","EPOCH":"2026-03-02T01:16:26.646816","MEAN_MOTION":13.13469582,"ECCENTRICITY":0.0001804,"INCLINATION":87.9047,"RA_OF_ASC_NODE":341.5232,"ARG_OF_PERICENTER":71.7449,"MEAN_ANOMALY":288.3877,"EPHEMERIS_TYPE":0,"CLASSIFICATION_TYPE":"U","NORAD_CAT_ID":48058,"ELEMENT_SET_NO":999,"REV_AT_EPOCH":23942,"BSTAR":4.9481e-5,"MEAN_MOTION_DOT":3.1e-7,"MEAN_MOTION_DDOT":0},{"OBJECT_NAME":"ONEWEB-0148","OBJECT_ID":"2021-025T","EPOCH":"2026-03-02T04:02:12.772896","MEAN_MOTION":13.13470022,"ECCENTRICITY":0.0002042,"INCLINATION":87.9044,"RA_OF_ASC_NODE":341.5153,"ARG_OF_PERICENTER":62.7527,"MEAN_ANOMALY":297.381,"EPHEMERIS_TYPE":0,"CLASSIFICATION_TYPE":"U","NORAD_CAT_ID":48059,"ELEMENT_SET_NO":999,"REV_AT_EPOCH":23956,"BSTAR":7.8991e-5,"MEAN_MOTION_DOT":4.2e-7,"MEAN_MOTION_DDOT":0},{"OBJECT_NAME":"ONEWEB-0160","OBJECT_ID":"2021-025U","EPOCH":"2026-03-02T00:47:11.041152","MEAN_MOTION":13.13469716,"ECCENTRICITY":0.0001044,"INCLINATION":87.9039,"RA_OF_ASC_NODE":341.5387,"ARG_OF_PERICENTER":86.5483,"MEAN_ANOMALY":273.5766,"EPHEMERIS_TYPE":0,"CLASSIFICATION_TYPE":"U","NORAD_CAT_ID":48060,"ELEMENT_SET_NO":999,"REV_AT_EPOCH":23949,"BSTAR":-0.00071797,"MEAN_MOTION_DOT":-2.49e-6,"MEAN_MOTION_DDOT":0},{"OBJECT_NAME":"ONEWEB-0163","OBJECT_ID":"2021-025V","EPOCH":"2026-03-02T04:04:38.891712","MEAN_MOTION":13.13468883,"ECCENTRICITY":0.0002076,"INCLINATION":87.9044,"RA_OF_ASC_NODE":341.5034,"ARG_OF_PERICENTER":79.7048,"MEAN_ANOMALY":280.4315,"EPHEMERIS_TYPE":0,"CLASSIFICATION_TYPE":"U","NORAD_CAT_ID":48061,"ELEMENT_SET_NO":999,"REV_AT_EPOCH":23963,"BSTAR":-4.4672e-8,"MEAN_MOTION_DOT":1.3e-7,"MEAN_MOTION_DDOT":0},{"OBJECT_NAME":"ONEWEB-0159","OBJECT_ID":"2021-025W","EPOCH":"2026-03-02T03:52:27.112224","MEAN_MOTION":13.13466941,"ECCENTRICITY":0.0001975,"INCLINATION":87.9053,"RA_OF_ASC_NODE":341.4913,"ARG_OF_PERICENTER":75.2517,"MEAN_ANOMALY":284.8831,"EPHEMERIS_TYPE":0,"CLASSIFICATION_TYPE":"U","NORAD_CAT_ID":48062,"ELEMENT_SET_NO":999,"REV_AT_EPOCH":23955,"BSTAR":0.00023763,"MEAN_MOTION_DOT":1.0e-6,"MEAN_MOTION_DDOT":0},{"OBJECT_NAME":"ONEWEB-0164","OBJECT_ID":"2021-025X","EPOCH":"2026-03-02T03:25:38.544672","MEAN_MOTION":13.13469417,"ECCENTRICITY":0.0001712,"INCLINATION":87.9048,"RA_OF_ASC_NODE":341.5016,"ARG_OF_PERICENTER":80.8142,"MEAN_ANOMALY":279.3181,"EPHEMERIS_TYPE":0,"CLASSIFICATION_TYPE":"U","NORAD_CAT_ID":48063,"ELEMENT_SET_NO":999,"REV_AT_EPOCH":23953,"BSTAR":0.00094211,"MEAN_MOTION_DOT":3.57e-6,"MEAN_MOTION_DDOT":0},{"OBJECT_NAME":"ONEWEB-0167","OBJECT_ID":"2021-025Y","EPOCH":"2026-03-02T04:05:53.274336","MEAN_MOTION":13.13465494,"ECCENTRICITY":0.0002293,"INCLINATION":87.9043,"RA_OF_ASC_NODE":341.5159,"ARG_OF_PERICENTER":94.4025,"MEAN_ANOMALY":265.7366,"EPHEMERIS_TYPE":0,"CLASSIFICATION_TYPE":"U","NORAD_CAT_ID":48064,"ELEMENT_SET_NO":999,"REV_AT_EPOCH":23952,"BSTAR":0.0010596,"MEAN_MOTION_DOT":4.0e-6,"MEAN_MOTION_DDOT":0},{"OBJECT_NAME":"ONEWEB-0166","OBJECT_ID":"2021-025Z","EPOCH":"2026-03-01T19:30:17.329248","MEAN_MOTION":13.13469713,"ECCENTRICITY":0.00018862,"INCLINATION":87.9047,"RA_OF_ASC_NODE":341.5489,"ARG_OF_PERICENTER":73.2266,"MEAN_ANOMALY":286.907,"EPHEMERIS_TYPE":0,"CLASSIFICATION_TYPE":"U","NORAD_CAT_ID":48065,"ELEMENT_SET_NO":999,"REV_AT_EPOCH":23955,"BSTAR":-0.00065694169,"MEAN_MOTION_DOT":-2.27e-6,"MEAN_MOTION_DDOT":0},{"OBJECT_NAME":"ONEWEB-0151","OBJECT_ID":"2021-025AA","EPOCH":"2026-03-02T01:01:49.095840","MEAN_MOTION":13.13469229,"ECCENTRICITY":0.0001828,"INCLINATION":87.9042,"RA_OF_ASC_NODE":341.5296,"ARG_OF_PERICENTER":82.9488,"MEAN_ANOMALY":277.1849,"EPHEMERIS_TYPE":0,"CLASSIFICATION_TYPE":"U","NORAD_CAT_ID":48066,"ELEMENT_SET_NO":999,"REV_AT_EPOCH":23952,"BSTAR":-0.00049667,"MEAN_MOTION_DOT":-1.69e-6,"MEAN_MOTION_DDOT":0},{"OBJECT_NAME":"ONEWEB-0170","OBJECT_ID":"2021-025AB","EPOCH":"2026-03-01T17:55:13.334304","MEAN_MOTION":13.13469447,"ECCENTRICITY":0.00015509,"INCLINATION":87.9041,"RA_OF_ASC_NODE":341.59,"ARG_OF_PERICENTER":92.9993,"MEAN_ANOMALY":267.1314,"EPHEMERIS_TYPE":0,"CLASSIFICATION_TYPE":"U","NORAD_CAT_ID":48067,"ELEMENT_SET_NO":999,"REV_AT_EPOCH":23944,"BSTAR":-2.0509308e-5,"MEAN_MOTION_DOT":5.0e-8,"MEAN_MOTION_DDOT":0},{"OBJECT_NAME":"ONEWEB-0168","OBJECT_ID":"2021-025AC","EPOCH":"2026-03-02T00:52:03.817920","MEAN_MOTION":13.13469298,"ECCENTRICITY":0.0001966,"INCLINATION":87.9051,"RA_OF_ASC_NODE":341.5233,"ARG_OF_PERICENTER":77.7657,"MEAN_ANOMALY":282.3692,"EPHEMERIS_TYPE":0,"CLASSIFICATION_TYPE":"U","NORAD_CAT_ID":48068,"ELEMENT_SET_NO":999,"REV_AT_EPOCH":23949,"BSTAR":-0.0008447,"MEAN_MOTION_DOT":-2.96e-6,"MEAN_MOTION_DDOT":0},{"OBJECT_NAME":"ONEWEB-0173","OBJECT_ID":"2021-025AD","EPOCH":"2026-03-02T00:39:52.861824","MEAN_MOTION":13.13469919,"ECCENTRICITY":0.0002147,"INCLINATION":87.9047,"RA_OF_ASC_NODE":341.532,"ARG_OF_PERICENTER":83.0503,"MEAN_ANOMALY":277.087,"EPHEMERIS_TYPE":0,"CLASSIFICATION_TYPE":"U","NORAD_CAT_ID":48069,"ELEMENT_SET_NO":999,"REV_AT_EPOCH":23973,"BSTAR":-0.00053956,"MEAN_MOTION_DOT":-1.84e-6,"MEAN_MOTION_DDOT":0}]
